STARLINK-31142          
1 58779U 24011Q   24038.58334491 -.02217785  00000+0 -57155-1 0  9995
2 58779  53.1598 218.1933 0001008 102.2187  82.0546 15.41970218  5082
STARLINK-31103          
1 58780U 24011R   24038.58334491 -.02178483  00000+0 -54315-1 0  9993
2 58780  53.1597 218.1759 0001213  51.8120 141.3672 15.43472361  4977
STARLINK-31099          
1 58781U 24011S   24038.58334491 -.02180335  00000+0 -51637-1 0  9997
2 58781  53.1596 218.1618 0001012  92.8683 107.4912 15.44976497  4977
STARLINK-31060          
1 58782U 24011T   24038.58334491 -.01746193  00000+0 -37987-1 0  9999
2 58782  53.1602 217.6172 0001332  94.4650  17.6130 15.47197301  4978
STARLINK-31047          
1 58783U 24011U   24038.58334491 -.02216829  00000+0 -64825-1 0  9990
2 58783  53.1594 217.9186 0001042 120.6436 199.6771 15.38172098  4977
STARLINK-31039          
1 58784U 24011V   24038.48183154 -.00351539  00000+0 -68885-2 0  9995
2 58784  53.1600 218.6336 0004843 157.2034 202.9190 15.48073534  5029
STARLINK-31034          
1 58785U 24011W   24038.58334491 -.01742395  00000+0 -37733-1 0  9991
2 58785  53.1595 217.1689 0001115 110.3447 219.9314 15.47320985  4978
STARLINK-31024          
1 58786U 24011X   24038.09408943 -.00029852  00000+0 -53812-3 0  9995
2 58786  53.1600 220.4798 0001423 183.8836 176.2162 15.48916867  4969
STARLINK-31189          
1 58787U 24012A   24038.58334491 -.02169459  00000+0 -49013-1 0  9993
2 58787  42.9996 136.3513 0001073 281.9087 265.0178 15.46097326  4820
STARLINK-31185          
1 58788U 24012B   24038.58334491 -.02173113  00000+0 -47983-1 0  9990
2 58788  42.9998 136.3462 0001351 279.1909 269.8361 15.46757778  4973
STARLINK-31166          
1 58789U 24012C   24038.58334491 -.00001107  00000+0 -13962-4 0  9995
2 58789  42.9996 136.3396 0001676 254.5147 297.1566 15.48907451  4821
STARLINK-31187          
1 58790U 24012D   24038.58334491 -.02169971  00000+0 -45743-1 0  9992
2 58790  42.9998 136.3385 0001383 293.1068 259.1290 15.48070768  4979
STARLINK-31162          
1 58791U 24012E   24038.58334491 -.02168893  00000+0 -53733-1 0  9993
2 58791  42.9996 136.4062 0001310 286.4197 236.9331 15.43421305  4970
STARLINK-31194          
1 58792U 24012F   24038.58334491 -.02697033  00000+0 -50362-1 0  9992
2 58792  42.9999 135.5720 0001109 300.0021 199.5930 15.51670418  4979
STARLINK-31184          
1 58793U 24012G   24038.58334491 -.00928726  00000+0 -18066-1 0  9992
2 58793  42.9998 136.3313 0000725 279.9897 274.9817 15.49250229  4887
STARLINK-31192          
1 58794U 24012H   24038.58334491  .00005726  00000+0  10956-3 0  9999
2 58794  42.9997 136.3296 0001751 269.7319 286.1598 15.48900984  4827
STARLINK-31161          
1 58795U 24012J   24038.58334491  .00002453  00000+0  50395-4 0  9996
2 58795  42.9997 136.3271 0001635 273.6792 283.0473 15.48907300  4974
STARLINK-31195          
1 58796U 24012K   24038.58334491 -.00001111  00000+0 -14049-4 0  9995
2 58796  42.9996 136.3249 0001299 289.6541 267.9254 15.48901884  4973
STARLINK-31193          
1 58797U 24012L   24038.58334491  .00004852  00000+0  93762-4 0  9998
2 58797  42.9997 136.3228 0001831 282.4378 275.9776 15.48902140  4977
STARLINK-31168          
1 58798U 24012M   24038.58334491 -.00014816  00000+0 -26233-3 0  9990
2 58798  42.9996 136.3201 0001589 282.8316 276.4233 15.48913130  4979
STARLINK-31154          
1 58799U 24012N   24038.58334491 -.00011006  00000+0 -19328-3 0  9996
2 58799  42.9997 136.2961 0001921 265.1134 303.4155 15.48904276  4879
STARLINK-31191          
1 58800U 24012P   24038.58334491  .00033807  00000+0  61529-3 0  9990
2 58800  42.9996 136.3178 0001293 280.5308 279.5725 15.48883909  4828
STARLINK-31170          
1 58801U 24012Q   24038.58334491  .00048529  00000+0  87904-3 0  9993
2 58801  42.9996 136.3156 0001409 281.1723 279.7731 15.48880743  4970
STARLINK-31173          
1 58802U 24012R   24038.57936336  .00281389  42551-4  44526-3 0  9997
2 58802  42.9982 132.2710 0002565 311.6410  48.4249 16.03035313  4964
STARLINK-31141          
1 58803U 24012S   24038.58334491  .00002450  00000+0  50362-4 0  9997
2 58803  42.9996 136.3089 0001411 286.6192 276.8561 15.48897103  4977
STARLINK-31188          
1 58804U 24012T   24038.58334491 -.00029611  00000+0 -53118-3 0  9999
2 58804  42.9998 136.3112 0001398 282.8532 279.7663 15.48923359  4975
STARLINK-31105          
1 58805U 24012U   24038.58334491  .00016474  00000+0  30355-3 0  9999
2 58805  42.9998 136.3070 0001946 256.6365 307.6851 15.48888400  4822
STARLINK-31138          
1 58806U 24012V   24038.58334491  .00016305  00000+0  30046-3 0  9990
2 58806  42.9996 136.3054 0001440 273.5891 291.5687 15.48892366  4974
STARLINK-31163          
1 58807U 24012W   24038.58334491  .00017289  00000+0  31818-3 0  9991
2 58807  42.9998 136.3027 0001282 275.3816 290.6238 15.48893118  4976
STARLINK-31174          
1 58808U 24012X   24038.58334491  .00009065  00000+0  16985-3 0  9993
2 58808  42.9998 136.3000 0001953 289.9769 276.8664 15.48899618  4971
